{"type": "FeatureCollection", "features": [ {"type": "Feature", "properties": {"norad_id": 31753, "name": "FENGYUN 1C DEB", "group": "fengyun-1c-debris", "lat": -42.94519867256537, "lon": 25.220259185837527, "alt_km": 916.0912144582053, "timestamp": "2025-12-09T21:34:11.692258+00:00", "meta": {"OBJECT_NAME": "FENGYUN 1C DEB", "OBJECT_ID": "1999-025CFC", "EPOCH": "2025-12-09T14:02:04.724160", "MEAN_MOTION": 14.18631017, "ECCENTRICITY": 0.01589376, "INCLINATION": 98.6327, "RA_OF_ASC_NODE": 16.7861, "ARG_OF_PERICENTER": 182.8445, "MEAN_ANOMALY": 329.8175, "EPHEMERIS_TYPE": 0, "CLASSIFICATION_TYPE": "U", "NORAD_CAT_ID": 31753, "ELEMENT_SET_NO": 999, "REV_AT_EPOCH": 95974, "BSTAR": 0.00053461677, "MEAN_MOTION_DOT": 1.213e-05, "MEAN_MOTION_DDOT": 0}, "tle": {"line1": "1 31753U 99025CFC 25343.58477690  .00001213  00000+0  53462-3 0  9996", "line2": "2 31753  98.6327  16.7861 0158937 182.8445 329.8175 14.18631017959741"}}, "geometry": {"type": "Point", "coordinates": [25.220259185837527, -42.94519867256537]}}, {"type": "Feature", "properties": {"norad_id": 31754, "name": "FENGYUN 1C DEB", "group": "fengyun-1c-debris", "lat": 13.436856784959565, "lon": 131.20316205265766, "alt_km": 734.6499557981442, "timestamp": "2025-12-09T21:34:11.692270+00:00", "meta": {"OBJECT_NAME": "FENGYUN 1C DEB", "OBJECT_ID": "1999-025CFD", "EPOCH": "2025-12-08T14:49:34.851072", "MEAN_MOTION": 14.42216993, "ECCENTRICITY": 0.0049141, "INCLINATION": 99.04, "RA_OF_ASC_NODE": 307.6671, "ARG_OF_PERICENTER": 230.3189, "MEAN_ANOMALY": 129.366, "EPHEMERIS_TYPE": 0, "CLASSIFICATION_TYPE": "U", "NORAD_CAT_ID": 31754, "ELEMENT_SET_NO": 999, "REV_AT_EPOCH": 96930, "BSTAR": 0.0017713, "MEAN_MOTION_DOT": 5.877e-05, "MEAN_MOTION_DDOT": 0}, "tle": {"line1": "1 31754U 99025CFD 25342.61776448  .00005877  00000+0  17713-2 0  9991", "line2": "2 31754  99.0400 307.6671 0049141 230.3189 129.3660 14.42216993969304"}}, "geometry": {"type": "Point", "coordinates": [131.20316205265766, 13.436856784959565]}}, {"type": "Feature", "properties": {"norad_id": 31757, "name": "FENGYUN 1C DEB", "group": "fengyun-1c-debris", "lat": 11.907811894193252, "lon": -172.0859059476838, "alt_km": 825.764128062955, "timestamp": "2025-12-09T21:34:11.692280+00:00", "meta": {"OBJECT_NAME": "FENGYUN 1C DEB", "OBJECT_ID": "1999-025CFG", "EPOCH": "2025-12-09T07:09:13.544352", "MEAN_MOTION": 14.07914425, "ECCENTRICITY": 0.0217989, "INCLINATION": 98.7685, "RA_OF_ASC_NODE": 5.4651, "ARG_OF_PERICENTER": 93.7335, "MEAN_ANOMALY": 268.8789, "EPHEMERIS_TYPE": 0, "CLASSIFICATION_TYPE": "U", "NORAD_CAT_ID": 31757, "ELEMENT_SET_NO": 999, "REV_AT_EPOCH": 63833, "BSTAR": 0.00035902, "MEAN_MOTION_DOT": 7.17e-06, "MEAN_MOTION_DDOT": 0}, "tle": {"line1": "1 31757U 99025CFG 25343.29807343  .00000717  00000+0  35902-3 0  9997", "line2": "2 31757  98.7685   5.4651 0217989  93.7335 268.8789 14.07914425638333"}}, "geometry": {"type": "Point", "coordinates": [-172.0859059476838, 11.907811894193252]}}, {"type": "Feature", "properties": {"norad_id": 31758, "name": "FENGYUN 1C DEB", "group": "fengyun-1c-debris", "lat": 53.983278404030074, "lon": -18.113453709275074, "alt_km": 580.3947414187733, "timestamp": "2025-12-09T21:34:11.692290+00:00", "meta": {"OBJECT_NAME": "FENGYUN 1C DEB", "OBJECT_ID": "1999-025CFH", "EPOCH": "2025-12-09T11:19:45.178752", "MEAN_MOTION": 14.418924, "ECCENTRICITY": 0.03185097, "INCLINATION": 98.0605, "RA_OF_ASC_NODE": 352.7233, "ARG_OF_PERICENTER": 100.1746, "MEAN_ANOMALY": 263.5525, "EPHEMERIS_TYPE": 0, "CLASSIFICATION_TYPE": "U", "NORAD_CAT_ID": 31758, "ELEMENT_SET_NO": 999, "REV_AT_EPOCH": 94153, "BSTAR": 0.0026701195, "MEAN_MOTION_DOT": 0.00016114, "MEAN_MOTION_DDOT": 0}, "tle": {"line1": "1 31758U 99025CFH 25343.47205068  .00016114  00000+0  26701-2 0  9998", "line2": "2 31758  98.0605 352.7233 0318509 100.1746 263.5525 14.41892400941537"}}, "geometry": {"type": "Point", "coordinates": [-18.113453709275074, 53.983278404030074]}}, {"type": "Feature", "properties": {"norad_id": 31760, "name": "FENGYUN 1C DEB", "group": "fengyun-1c-debris", "lat": 3.8334282860085125, "lon": -97.98435158156263, "alt_km": 760.6173801495925, "timestamp": "2025-12-09T21:34:11.692300+00:00", "meta": {"OBJECT_NAME": "FENGYUN 1C DEB", "OBJECT_ID": "1999-025CFK", "EPOCH": "2025-12-08T17:52:54.033312", "MEAN_MOTION": 14.30154976, "ECCENTRICITY": 0.00526714, "INCLINATION": 99.2541, "RA_OF_ASC_NODE": 80.1638, "ARG_OF_PERICENTER": 208.6786, "MEAN_ANOMALY": 151.1496, "EPHEMERIS_TYPE": 0, "CLASSIFICATION_TYPE": "U", "NORAD_CAT_ID": 31760, "ELEMENT_SET_NO": 999, "REV_AT_EPOCH": 96075, "BSTAR": 0.0014085109, "MEAN_MOTION_DOT": 3.652e-05, "MEAN_MOTION_DDOT": 0}, "tle": {"line1": "1 31760U 99025CFK 25342.74506983  .00003652  00000+0  14085-2 0  9995", "line2": "2 31760  99.2541  80.1638 0052671 208.6786 151.1496 14.30154976960757"}}, "geometry": {"type": "Point", "coordinates": [-97.98435158156263, 3.8334282860085125]}}, {"type": "Feature", "properties": {"norad_id": 31761, "name": "FENGYUN 1C DEB", "group": "fengyun-1c-debris", "lat": -56.16755280843207, "lon": -138.99191177393996, "alt_km": 592.0206981012898, "timestamp": "2025-12-09T21:34:11.692312+00:00", "meta": {"OBJECT_NAME": "FENGYUN 1C DEB", "OBJECT_ID": "1999-025CFL", "EPOCH": "2025-12-08T09:53:42.751104", "MEAN_MOTION": 14.03332637, "ECCENTRICITY": 0.04729399, "INCLINATION": 98.6332, "RA_OF_ASC_NODE": 206.4904, "ARG_OF_PERICENTER": 275.6547, "MEAN_ANOMALY": 79.089, "EPHEMERIS_TYPE": 0, "CLASSIFICATION_TYPE": "U", "NORAD_CAT_ID": 31761, "ELEMENT_SET_NO": 999, "REV_AT_EPOCH": 58050, "BSTAR": 0.0027547659, "MEAN_MOTION_DOT": 0.00011735, "MEAN_MOTION_DDOT": 0}, "tle": {"line1": "1 31761U 99025CFL 25342.41230036  .00011735  00000+0  27548-2 0  9992", "line2": "2 31761  98.6332 206.4904 0472939 275.6547  79.0890 14.03332637580509"}}, "geometry": {"type": "Point", "coordinates": [-138.99191177393996, -56.16755280843207]}}, {"type": "Feature", "properties": {"norad_id": 31763, "name": "FENGYUN 1C DEB", "group": "fengyun-1c-debris", "lat": 20.77328110447637, "lon": -84.04702874080837, "alt_km": 991.9084912925046, "timestamp": "2025-12-09T21:34:11.692323+00:00", "meta": {"OBJECT_NAME": "FENGYUN 1C DEB", "OBJECT_ID": "1999-025CFN", "EPOCH": "2025-12-08T05:51:53.611200", "MEAN_MOTION": 13.50313879, "ECCENTRICITY": 0.05471877, "INCLINATION": 98.5212, "RA_OF_ASC_NODE": 91.2677, "ARG_OF_PERICENTER": 81.2412, "MEAN_ANOMALY": 313.6008, "EPHEMERIS_TYPE": 0, "CLASSIFICATION_TYPE": "U", "NORAD_CAT_ID": 31763, "ELEMENT_SET_NO": 999, "REV_AT_EPOCH": 90945, "BSTAR": 0.0011696232, "MEAN_MOTION_DOT": 1.885e-05, "MEAN_MOTION_DDOT": 0}, "tle": {"line1": "1 31763U 99025CFN 25342.24437050  .00001885  00000+0  11696-2 0  9992", "line2": "2 31763  98.5212  91.2677 0547187  81.2412 313.6008 13.50313879909459"}}, "geometry": {"type": "Point", "coordinates": [-84.04702874080837, 20.77328110447637]}}, {"type": "Feature", "properties": {"norad_id": 31766, "name": "FENGYUN 1C DEB", "group": "fengyun-1c-debris", "lat": -61.28488262993151, "lon": -1.7410014388262878, "alt_km": 829.2781989858013, "timestamp": "2025-12-09T21:34:11.692333+00:00", "meta": {"OBJECT_NAME": "FENGYUN 1C DEB", "OBJECT_ID": "1999-025CFR", "EPOCH": "2025-12-05T17:02:42.241632", "MEAN_MOTION": 14.0527359, "ECCENTRICITY": 0.00736647, "INCLINATION": 98.8158, "RA_OF_ASC_NODE": 337.7312, "ARG_OF_PERICENTER": 310.9952, "MEAN_ANOMALY": 48.486, "EPHEMERIS_TYPE": 0, "CLASSIFICATION_TYPE": "U", "NORAD_CAT_ID": 31766, "ELEMENT_SET_NO": 999, "REV_AT_EPOCH": 63987, "BSTAR": 0.00041011226, "MEAN_MOTION_DOT": 6.36e-06, "MEAN_MOTION_DDOT": 0}, "tle": {"line1": "1 31766U 99025CFR 25339.71021113  .00000636  00000+0  41011-3 0  9990", "line2": "2 31766  98.8158 337.7312 0073664 310.9952  48.4860 14.05273590639874"}}, "geometry": {"type": "Point", "coordinates": [-1.7410014388262878, -61.28488262993151]}}, {"type": "Feature", "properties": {"norad_id": 31767, "name": "FENGYUN 1C DEB", "group": "fengyun-1c-debris", "lat": -80.469524958225, "lon": 81.33875870952151, "alt_km": 913.3040671575855, "timestamp": "2025-12-09T21:34:11.692345+00:00", "meta": {"OBJECT_NAME": "FENGYUN 1C DEB", "OBJECT_ID": "1999-025CFS", "EPOCH": "2025-12-09T14:09:07.036992", "MEAN_MOTION": 14.0495225, "ECCENTRICITY": 0.00419645, "INCLINATION": 98.822, "RA_OF_ASC_NODE": 13.3689, "ARG_OF_PERICENTER": 78.6344, "MEAN_ANOMALY": 72.6958, "EPHEMERIS_TYPE": 0, "CLASSIFICATION_TYPE": "U", "NORAD_CAT_ID": 31767, "ELEMENT_SET_NO": 999, "REV_AT_EPOCH": 94781, "BSTAR": 0.00014366008, "MEAN_MOTION_DOT": 1.9e-06, "MEAN_MOTION_DDOT": 0}, "tle": {"line1": "1 31767U 99025CFS 25343.58966478  .00000190  00000+0  14366-3 0  9991", "line2": "2 31767  98.8220  13.3689 0041964  78.6344  72.6958 14.04952250947819"}}, "geometry": {"type": "Point", "coordinates": [81.33875870952151, -80.469524958225]}}, {"type": "Feature", "properties": {"norad_id": 31768, "name": "FENGYUN 1C DEB", "group": "fengyun-1c-debris", "lat": 18.084507255951923, "lon": 53.45668398576696, "alt_km": 626.0596947567901, "timestamp": "2025-12-09T21:34:11.692355+00:00", "meta": {"OBJECT_NAME": "FENGYUN 1C DEB", "OBJECT_ID": "1999-025CFT", "EPOCH": "2025-12-09T10:21:57.177792", "MEAN_MOTION": 14.75948048, "ECCENTRICITY": 0.00263109, "INCLINATION": 99.0419, "RA_OF_ASC_NODE": 55.9157, "ARG_OF_PERICENTER": 352.1866, "MEAN_ANOMALY": 67.0567, "EPHEMERIS_TYPE": 0, "CLASSIFICATION_TYPE": "U", "NORAD_CAT_ID": 31768, "ELEMENT_SET_NO": 999, "REV_AT_EPOCH": 96824, "BSTAR": 0.0036327357, "MEAN_MOTION_DOT": 0.00025147, "MEAN_MOTION_DDOT": 0}, "tle": {"line1": "1 31768U 99025CFT 25343.43191178  .00025147  00000+0  36327-2 0  9992", "line2": "2 31768  99.0419  55.9157 0026310 352.1866  67.0567 14.75948048968244"}}, "geometry": {"type": "Point", "coordinates": [53.45668398576696, 18.084507255951923]}}]}